[{"OBJECT_NAME":"STARLINK-6044","OBJECT_ID":"2023-064AH","EPOCH":"2026-03-09T13:25:56.817696","MEAN_MOTION":14.98326461,"ECCENTRICITY":0.0003376,"INCLINATION":69.9997,"RA_OF_ASC_NODE":124.6333,"ARG_OF_PERICENTER":269.6306,"MEAN_ANOMALY":90.4466,"EPHEMERIS_TYPE":0,"CLASSIFICATION_TYPE":"U","NORAD_CAT_ID":56479,"ELEMENT_SET_NO":999,"REV_AT_EPOCH":15572,"BSTAR":-5.2639e-5,"MEAN_MOTION_DOT":-7.21e-6,"MEAN_MOTION_DDOT":0},{"OBJECT_NAME":"PEGASUS DEB","OBJECT_ID":"1994-029ADZ","EPOCH":"2026-03-09T09:44:41.678880","MEAN_MOTION":14.71787317,"ECCENTRICITY":0.01294019,"INCLINATION":81.9867,"RA_OF_ASC_NODE":205.808,"ARG_OF_PERICENTER":256.1704,"MEAN_ANOMALY":159.4284,"EPHEMERIS_TYPE":0,"CLASSIFICATION_TYPE":"U","NORAD_CAT_ID":25445,"ELEMENT_SET_NO":999,"REV_AT_EPOCH":52180,"BSTAR":0.00051371535,"MEAN_MOTION_DOT":3.68e-5,"MEAN_MOTION_DDOT":0}]
